STARLINK-36746          
1 67733U 26026N   26062.75002314 -.01922528  00000+0 -34210-1 0  9991
2 67733  97.2839 117.0350 0001937  80.7404 115.6851 15.53654803  4355
STARLINK-36749          
1 67734U 26026P   26062.75002314 -.02005569  00000+0 -20975-1 0  9993
2 67734  97.2840 117.1375 0001745  73.7657   9.6437 15.67569336  4358
STARLINK-36691          
1 67735U 26026Q   26062.75002314 -.01970692  00000+0 -15598-1 0  9996
2 67735  97.2841 117.1678 0001874  82.5014  79.5148 15.74672685  4494
STARLINK-36317          
1 67736U 26026R   26062.75002314 -.01972406  00000+0 -15786-1 0  9991
2 67736  97.2841 117.1629 0001864  78.8944  72.2684 15.74420386  4359
STARLINK-36330          
1 67737U 26026S   26062.75002314 -.01973998  00000+0 -15559-1 0  9997
2 67737  97.2842 117.1699 0001895  85.6924  83.0737 15.74773992  4359
STARLINK-36327          
1 67738U 26026T   26062.75002314 -.01974495  00000+0 -15366-1 0  9997
2 67738  97.2842 117.1740 0001809  86.7801  91.4536 15.75066277  4350
STARLINK-36329          
1 67739U 26026U   26062.75002314 -.01965117  00000+0 -14605-1 0  9994
2 67739  97.2855 117.1915 0001811  90.2765 140.7677 15.76093819  4358
STARLINK-36737          
1 67740U 26026V   26062.75002314 -.01971790  00000+0 -15239-1 0  9994
2 67740  97.2842 117.1765 0001856  86.5463 101.1980 15.75218267  4354
STARLINK-36740          
1 67741U 26026W   26062.75002314 -.02004932  00000+0 -18221-1 0  9995
2 67741  97.2846 117.1788 0001913  86.6939 101.6771 15.70952134  4353
STARLINK-36693          
1 67742U 26026X   26062.75002314 -.02008907  00000+0 -17752-1 0  9990
2 67742  97.2843 117.1725 0001888  85.1471  86.3678 15.71622766  4494
STARLINK-36717          
1 67743U 26026Y   26062.75002314 -.01967514  00000+0 -16221-1 0  9998
2 67743  97.2846 117.1830 0001812  88.6510 113.3026 15.73728960  4497
STARLINK-36692          
1 67744U 26026Z   26062.75002314 -.02008821  00000+0 -17110-1 0  9995
2 67744  97.2844 117.1774 0001873  85.4403 100.9593 15.72487315  4357
